[{"OBJECT_NAME":"STARLINK-34709","OBJECT_ID":"2025-152C","EPOCH":"2026-03-26T21:23:43.482336","MEAN_MOTION":15.05654396,"ECCENTRICITY":0.0001578,"INCLINATION":97.6041,"RA_OF_ASC_NODE":302.4272,"ARG_OF_PERICENTER":99.3042,"MEAN_ANOMALY":260.8363,"EPHEMERIS_TYPE":0,"CLASSIFICATION_TYPE":"U","NORAD_CAT_ID":64844,"ELEMENT_SET_NO":999,"REV_AT_EPOCH":3800,"BSTAR":0.00067827,"MEAN_MOTION_DOT":9.741e-5,"MEAN_MOTION_DDOT":0},{"OBJECT_NAME":"STARLINK-34706","OBJECT_ID":"2025-152D","EPOCH":"2026-03-26T02:31:15.383424","MEAN_MOTION":15.05655493,"ECCENTRICITY":0.00018956,"INCLINATION":97.602,"RA_OF_ASC_NODE":301.6274,"ARG_OF_PERICENTER":87.789,"MEAN_ANOMALY":272.3554,"EPHEMERIS_TYPE":0,"CLASSIFICATION_TYPE":"U","NORAD_CAT_ID":64845,"ELEMENT_SET_NO":999,"REV_AT_EPOCH":3788,"BSTAR":0.00031817659,"MEAN_MOTION_DOT":4.534e-5,"MEAN_MOTION_DDOT":0},{"OBJECT_NAME":"STARLINK-34736","OBJECT_ID":"2025-152E","EPOCH":"2026-03-26T12:49:19.389216","MEAN_MOTION":15.05656976,"ECCENTRICITY":0.000169,"INCLINATION":97.6042,"RA_OF_ASC_NODE":302.1255,"ARG_OF_PERICENTER":67.5858,"MEAN_ANOMALY":292.5548,"EPHEMERIS_TYPE":0,"CLASSIFICATION_TYPE":"U","NORAD_CAT_ID":64846,"ELEMENT_SET_NO":999,"REV_AT_EPOCH":3795,"BSTAR":0.00035058,"MEAN_MOTION_DOT":5.002e-5,"MEAN_MOTION_DDOT":0},{"OBJECT_NAME":"STARLINK-34746","OBJECT_ID":"2025-152F","EPOCH":"2026-03-26T12:57:17.676288","MEAN_MOTION":15.05653644,"ECCENTRICITY":0.0001871,"INCLINATION":97.6043,"RA_OF_ASC_NODE":302.1261,"ARG_OF_PERICENTER":86.3178,"MEAN_ANOMALY":273.8263,"EPHEMERIS_TYPE":0,"CLASSIFICATION_TYPE":"U","NORAD_CAT_ID":64847,"ELEMENT_SET_NO":999,"REV_AT_EPOCH":3795,"BSTAR":0.00015248,"MEAN_MOTION_DOT":2.14e-5,"MEAN_MOTION_DDOT":0},{"OBJECT_NAME":"STARLINK-34748","OBJECT_ID":"2025-152G","EPOCH":"2026-03-26T07:50:15.896832","MEAN_MOTION":15.05653094,"ECCENTRICITY":0.0002276,"INCLINATION":97.6027,"RA_OF_ASC_NODE":301.9478,"ARG_OF_PERICENTER":76.2995,"MEAN_ANOMALY":283.8485,"EPHEMERIS_TYPE":0,"CLASSIFICATION_TYPE":"U","NORAD_CAT_ID":64848,"ELEMENT_SET_NO":999,"REV_AT_EPOCH":3792,"BSTAR":0.00022862,"MEAN_MOTION_DOT":3.24e-5,"MEAN_MOTION_DDOT":0},{"OBJECT_NAME":"STARLINK-34756","OBJECT_ID":"2025-152H","EPOCH":"2026-03-26T08:14:10.927392","MEAN_MOTION":15.05657295,"ECCENTRICITY":0.0001062,"INCLINATION":97.6034,"RA_OF_ASC_NODE":301.9463,"ARG_OF_PERICENTER":96.3176,"MEAN_ANOMALY":263.8171,"EPHEMERIS_TYPE":0,"CLASSIFICATION_TYPE":"U","NORAD_CAT_ID":64849,"ELEMENT_SET_NO":999,"REV_AT_EPOCH":3792,"BSTAR":0.00038299,"MEAN_MOTION_DOT":5.471e-5,"MEAN_MOTION_DDOT":0},{"OBJECT_NAME":"STARLINK-34757","OBJECT_ID":"2025-152J","EPOCH":"2026-03-26T08:26:08.613312","MEAN_MOTION":15.05656431,"ECCENTRICITY":0.0001821,"INCLINATION":97.6035,"RA_OF_ASC_NODE":301.913,"ARG_OF_PERICENTER":54.5758,"MEAN_ANOMALY":305.5638,"EPHEMERIS_TYPE":0,"CLASSIFICATION_TYPE":"U","NORAD_CAT_ID":64850,"ELEMENT_SET_NO":999,"REV_AT_EPOCH":3792,"BSTAR":0.00040732,"MEAN_MOTION_DOT":5.822e-5,"MEAN_MOTION_DDOT":0},{"OBJECT_NAME":"STARLINK-34722","OBJECT_ID":"2025-152K","EPOCH":"2026-03-26T13:29:11.388768","MEAN_MOTION":15.05659754,"ECCENTRICITY":0.0001602,"INCLINATION":97.6025,"RA_OF_ASC_NODE":302.0965,"ARG_OF_PERICENTER":109.1077,"MEAN_ANOMALY":251.0324,"EPHEMERIS_TYPE":0,"CLASSIFICATION_TYPE":"U","NORAD_CAT_ID":64851,"ELEMENT_SET_NO":999,"REV_AT_EPOCH":3795,"BSTAR":0.00027028,"MEAN_MOTION_DOT":3.842e-5,"MEAN_MOTION_DDOT":0},{"OBJECT_NAME":"STARLINK-34564","OBJECT_ID":"2025-152L","EPOCH":"2026-03-26T13:05:16.124928","MEAN_MOTION":15.05654948,"ECCENTRICITY":0.0002018,"INCLINATION":97.6032,"RA_OF_ASC_NODE":302.1185,"ARG_OF_PERICENTER":82.062,"MEAN_ANOMALY":278.0836,"EPHEMERIS_TYPE":0,"CLASSIFICATION_TYPE":"U","NORAD_CAT_ID":64852,"ELEMENT_SET_NO":999,"REV_AT_EPOCH":3795,"BSTAR":0.00020861,"MEAN_MOTION_DOT":2.951e-5,"MEAN_MOTION_DDOT":0},{"OBJECT_NAME":"STARLINK-34676","OBJECT_ID":"2025-152M","EPOCH":"2026-03-26T02:23:18.143520","MEAN_MOTION":15.05617809,"ECCENTRICITY":0.00019024,"INCLINATION":97.6021,"RA_OF_ASC_NODE":301.6337,"ARG_OF_PERICENTER":83.9677,"MEAN_ANOMALY":276.1767,"EPHEMERIS_TYPE":0,"CLASSIFICATION_TYPE":"U","NORAD_CAT_ID":64853,"ELEMENT_SET_NO":999,"REV_AT_EPOCH":3788,"BSTAR":-0.00049539964,"MEAN_MOTION_DOT":-7.196e-5,"MEAN_MOTION_DDOT":0},{"OBJECT_NAME":"STARLINK-34682","OBJECT_ID":"2025-152N","EPOCH":"2026-03-26T07:38:18.434688","MEAN_MOTION":15.05655304,"ECCENTRICITY":0.0002454,"INCLINATION":97.6024,"RA_OF_ASC_NODE":301.9628,"ARG_OF_PERICENTER":89.0389,"MEAN_ANOMALY":271.1119,"EPHEMERIS_TYPE":0,"CLASSIFICATION_TYPE":"U","NORAD_CAT_ID":64854,"ELEMENT_SET_NO":999,"REV_AT_EPOCH":3792,"BSTAR":0.00034315,"MEAN_MOTION_DOT":4.895e-5,"MEAN_MOTION_DDOT":0},{"OBJECT_NAME":"STARLINK-34631","OBJECT_ID":"2025-152P","EPOCH":"2026-03-26T13:09:15.403680","MEAN_MOTION":15.05655722,"ECCENTRICITY":0.0002042,"INCLINATION":97.6042,"RA_OF_ASC_NODE":302.1149,"ARG_OF_PERICENTER":80.6371,"MEAN_ANOMALY":279.5087,"EPHEMERIS_TYPE":0,"CLASSIFICATION_TYPE":"U","NORAD_CAT_ID":64855,"ELEMENT_SET_NO":999,"REV_AT_EPOCH":3795,"BSTAR":0.00027206,"MEAN_MOTION_DOT":3.868e-5,"MEAN_MOTION_DDOT":0},{"OBJECT_NAME":"STARLINK-34578","OBJECT_ID":"2025-152Q","EPOCH":"2026-03-26T13:53:07.768896","MEAN_MOTION":15.05657955,"ECCENTRICITY":0.0002145,"INCLINATION":97.6021,"RA_OF_ASC_NODE":302.237,"ARG_OF_PERICENTER":80.0243,"MEAN_ANOMALY":280.1225,"EPHEMERIS_TYPE":0,"CLASSIFICATION_TYPE":"U","NORAD_CAT_ID":64856,"ELEMENT_SET_NO":999,"REV_AT_EPOCH":3796,"BSTAR":0.00029554,"MEAN_MOTION_DOT":4.207e-5,"MEAN_MOTION_DDOT":0},{"OBJECT_NAME":"STARLINK-34683","OBJECT_ID":"2025-152R","EPOCH":"2026-03-26T12:53:19.004064","MEAN_MOTION":15.05653975,"ECCENTRICITY":0.0001793,"INCLINATION":97.6044,"RA_OF_ASC_NODE":302.1347,"ARG_OF_PERICENTER":86.3109,"MEAN_ANOMALY":273.8323,"EPHEMERIS_TYPE":0,"CLASSIFICATION_TYPE":"U","NORAD_CAT_ID":64857,"ELEMENT_SET_NO":999,"REV_AT_EPOCH":3795,"BSTAR":0.00035172,"MEAN_MOTION_DOT":5.018e-5,"MEAN_MOTION_DDOT":0},{"OBJECT_NAME":"STARLINK-34654","OBJECT_ID":"2025-152S","EPOCH":"2026-03-26T13:57:07.031232","MEAN_MOTION":15.05660576,"ECCENTRICITY":0.0002162,"INCLINATION":97.6029,"RA_OF_ASC_NODE":302.2158,"ARG_OF_PERICENTER":75.901,"MEAN_ANOMALY":284.2457,"EPHEMERIS_TYPE":0,"CLASSIFICATION_TYPE":"U","NORAD_CAT_ID":64858,"ELEMENT_SET_NO":999,"REV_AT_EPOCH":3796,"BSTAR":0.00020115,"MEAN_MOTION_DOT":2.844e-5,"MEAN_MOTION_DDOT":0},{"OBJECT_NAME":"STARLINK-34575","OBJECT_ID":"2025-152T","EPOCH":"2026-03-26T13:49:08.734656","MEAN_MOTION":15.0565444,"ECCENTRICITY":0.0002164,"INCLINATION":97.6021,"RA_OF_ASC_NODE":302.2326,"ARG_OF_PERICENTER":82.7535,"MEAN_ANOMALY":277.3938,"EPHEMERIS_TYPE":0,"CLASSIFICATION_TYPE":"U","NORAD_CAT_ID":64859,"ELEMENT_SET_NO":999,"REV_AT_EPOCH":3796,"BSTAR":0.00028366,"MEAN_MOTION_DOT":4.035e-5,"MEAN_MOTION_DDOT":0},{"OBJECT_NAME":"STARLINK-34570","OBJECT_ID":"2025-152U","EPOCH":"2026-03-26T13:37:09.643008","MEAN_MOTION":15.05659669,"ECCENTRICITY":0.0002268,"INCLINATION":97.6016,"RA_OF_ASC_NODE":302.0998,"ARG_OF_PERICENTER":82.2424,"MEAN_ANOMALY":277.906,"EPHEMERIS_TYPE":0,"CLASSIFICATION_TYPE":"U","NORAD_CAT_ID":64860,"ELEMENT_SET_NO":999,"REV_AT_EPOCH":3795,"BSTAR":0.00029698,"MEAN_MOTION_DOT":4.228e-5,"MEAN_MOTION_DDOT":0},{"OBJECT_NAME":"STARLINK-34651","OBJECT_ID":"2025-152V","EPOCH":"2026-03-26T13:45:38.640960","MEAN_MOTION":15.01267785,"ECCENTRICITY":8.92e-5,"INCLINATION":97.603,"RA_OF_ASC_NODE":302.2516,"ARG_OF_PERICENTER":142.7489,"MEAN_ANOMALY":217.3798,"EPHEMERIS_TYPE":0,"CLASSIFICATION_TYPE":"U","NORAD_CAT_ID":64861,"ELEMENT_SET_NO":999,"REV_AT_EPOCH":3796,"BSTAR":0.00026541,"MEAN_MOTION_DOT":3.353e-5,"MEAN_MOTION_DDOT":0},{"OBJECT_NAME":"STARLINK-34684","OBJECT_ID":"2025-152W","EPOCH":"2026-03-26T03:07:09.252480","MEAN_MOTION":15.05654419,"ECCENTRICITY":0.00020963,"INCLINATION":97.6034,"RA_OF_ASC_NODE":301.7564,"ARG_OF_PERICENTER":88.259,"MEAN_ANOMALY":271.8877,"EPHEMERIS_TYPE":0,"CLASSIFICATION_TYPE":"U","NORAD_CAT_ID":64862,"ELEMENT_SET_NO":999,"REV_AT_EPOCH":3789,"BSTAR":0.0003651685,"MEAN_MOTION_DOT":5.213e-5,"MEAN_MOTION_DDOT":0},{"OBJECT_NAME":"STARLINK-34690","OBJECT_ID":"2025-152X","EPOCH":"2026-03-26T14:05:03.925536","MEAN_MOTION":15.05700967,"ECCENTRICITY":0.0003019,"INCLINATION":97.603,"RA_OF_ASC_NODE":302.2247,"ARG_OF_PERICENTER":83.4999,"MEAN_ANOMALY":276.6572,"EPHEMERIS_TYPE":0,"CLASSIFICATION_TYPE":"U","NORAD_CAT_ID":64863,"ELEMENT_SET_NO":999,"REV_AT_EPOCH":3796,"BSTAR":0.0013326,"MEAN_MOTION_DOT":0.00019248,"MEAN_MOTION_DDOT":0},{"OBJECT_NAME":"STARLINK-34628","OBJECT_ID":"2025-152Y","EPOCH":"2026-03-26T12:45:20.256480","MEAN_MOTION":15.05657279,"ECCENTRICITY":0.0002068,"INCLINATION":97.6038,"RA_OF_ASC_NODE":302.1391,"ARG_OF_PERICENTER":64.3827,"MEAN_ANOMALY":295.7614,"EPHEMERIS_TYPE":0,"CLASSIFICATION_TYPE":"U","NORAD_CAT_ID":64864,"ELEMENT_SET_NO":999,"REV_AT_EPOCH":3795,"BSTAR":0.00033797,"MEAN_MOTION_DOT":4.82e-5,"MEAN_MOTION_DDOT":0},{"OBJECT_NAME":"STARLINK-34544","OBJECT_ID":"2025-152Z","EPOCH":"2026-03-26T14:09:04.686912","MEAN_MOTION":15.05658005,"ECCENTRICITY":0.0002638,"INCLINATION":97.6031,"RA_OF_ASC_NODE":302.2128,"ARG_OF_PERICENTER":87.7825,"MEAN_ANOMALY":272.3704,"EPHEMERIS_TYPE":0,"CLASSIFICATION_TYPE":"U","NORAD_CAT_ID":64865,"ELEMENT_SET_NO":999,"REV_AT_EPOCH":3796,"BSTAR":0.00032509,"MEAN_MOTION_DOT":4.634e-5,"MEAN_MOTION_DDOT":0},{"OBJECT_NAME":"STARLINK-34647","OBJECT_ID":"2025-157A","EPOCH":"2026-03-26T11:58:37.828416","MEAN_MOTION":15.30216393,"ECCENTRICITY":4.53e-5,"INCLINATION":53.1557,"RA_OF_ASC_NODE":267.8571,"ARG_OF_PERICENTER":48.7885,"MEAN_ANOMALY":311.3155,"EPHEMERIS_TYPE":0,"CLASSIFICATION_TYPE":"U","NORAD_CAT_ID":64904,"ELEMENT_SET_NO":999,"REV_AT_EPOCH":3868,"BSTAR":0.0013194,"MEAN_MOTION_DOT":0.00038943,"MEAN_MOTION_DDOT":0}]
